OBJECT_NAME,OBJECT_ID,EPOCH,MEAN_MOTION,ECCENTRICITY,INCLINATION,RA_OF_ASC_NODE,ARG_OF_PERICENTER,MEAN_ANOMALY,EPHEMERIS_TYPE,CLASSIFICATION_TYPE,NORAD_CAT_ID,ELEMENT_SET_NO,REV_AT_EPOCH,BSTAR,MEAN_MOTION_DOT,MEAN_MOTION_DDOT
COSMO-SKYMED 1,2007-023A,2026-06-11T17:18:27.567360,14.97073642,.0000996,97.8848,354.5319,88.5169,271.6167,0,U,31598,999,2897,.18782E-3,.2105E-4,0
COSMOS 2428,2007-029A,2026-06-11T16:37:03.327168,14.12929186,.0007221,70.9372,6.0152,145.6168,214.5421,0,U,31792,999,97737,-.52473E-4,-.146E-5,0
SL-16 R/B,2007-029B,2026-06-11T16:02:37.758048,14.14852229,.0002225,70.9764,334.8296,259.4556,176.4916,0,U,31793,999,97866,.17354E-3,.287E-5,0
KORONAS-FOTON,2009-003A,2026-06-11T12:15:44.136864,15.45607253,.0011071,82.4289,178.1802,166.2492,193.9060,0,U,33504,999,96022,.21864E-3,.10583E-3,0
CZ-2C R/B,2011-030B,2026-06-11T15:49:14.226816,14.81457875,.0053451,97.8653,118.1452,45.6750,130.5247,0,U,37731,999,80400,.14548E-3,.1113E-4,0
H-2A R/B,2012-025E,2026-06-11T16:06:36.223776,14.95686479,.0044016,98.4816,137.3620,7.2569,352.9277,0,U,38341,999,76226,.27131E-3,.3007E-4,0
SHIJIAN-16 (SJ-16),2013-057A,2026-06-11T17:50:07.675296,14.92598822,.0016906,74.9736,6.9949,243.4887,116.4568,0,U,39358,999,68553,.12023E-3,.1211E-4,0
SL-4 R/B,2014-021B,2026-06-11T10:12:15.136416,15.41833581,.0091459,51.6055,238.9984,85.0382,276.1037,0,U,39679,999,67072,.21183E-3,.10157E-3,0
ALOS-2,2014-029A,2026-06-11T17:29:06.192960,14.79472518,.0001638,97.9210,259.9704,89.5715,270.5684,0,U,39766,999,65077,.16818E-3,.1205E-4,0
YAOGAN-29,2015-069A,2026-06-11T17:06:33.702912,14.83082173,.0002835,98.0035,191.3372,64.2487,295.9019,0,U,41038,999,56981,.10477E-3,.799E-5,0
ASTRO-H (HITOMI),2016-012A,2026-06-11T03:40:24.536064,15.10484459,.00096914,30.9976,113.1571,193.5931,166.4447,0,U,41337,999,56637,.12121007E-3,.2143E-4,0
HXMT (HUIYAN),2017-034A,2026-06-11T13:02:05.213760,15.18441281,.0030215,43.0133,214.4686,110.0181,250.3925,0,U,42758,999,49680,.19424E-3,.3875E-4,0
SAOCOM 1A,2018-076A,2026-06-11T16:01:25.296960,14.82143199,.0001567,97.8888,349.4969,80.1673,279.9717,0,U,43641,999,41528,.67607E-4,.486E-5,0
H-2A R/B,2018-084L,2026-06-11T14:57:39.536064,15.44941664,.0024018,98.8594,40.2987,58.8983,301.4613,0,U,43682,999,42026,.41197E-3,.19502E-3,0
SAOCOM 1B,2020-059A,2026-06-11T16:46:26.376096,14.82167383,.000151,97.8892,348.6225,82.3998,277.7386,0,U,46265,999,31267,.52983E-4,.37E-5,0
CSS (TIANHE),2021-035A,2026-06-11T12:54:26.829792,15.60566891,.0008209,41.4693,356.3768,31.5834,328.5496,0,U,48274,999,29228,.19807E-3,.16554E-3,0
COSMOS 2550,2021-056A,2026-06-08T19:23:25.914048,15.33755463,.0008705,67.1416,125.2525,266.0377,93.9783,0,U,48865,999,27743,.19790476E-3,.631E-4,0
CZ-2C R/B,2022-058K,2026-06-11T13:08:16.384704,15.61464510,.0032809,50.1845,192.8563,244.4691,115.2888,0,U,52794,999,22476,.37052E-3,.32812E-3,0
CZ-2C R/B,2022-132E,2026-06-11T13:08:56.014656,15.70871804,.0016741,97.2899,169.3229,101.4335,258.8810,0,U,54039,999,20506,.48303E-3,.60778E-3,0
GSLV R/B,2022-138AN,2026-06-11T15:17:44.746080,14.97231323,.0022052,87.3794,134.8480,162.6749,197.5240,0,U,54149,999,19798,.16271E-3,.192E-4,0
XRISM,2023-137A,2026-06-11T01:16:21.757440,15.12412932,.00079432,31.0028,39.3338,262.6424,97.3312,0,U,57800,999,15193,.24618033E-3,.4483E-4,0
ACS3,2024-077B,2026-06-11T12:49:49.247328,13.93897959,.0060015,97.1682,82.5854,68.1976,292.5561,0,U,59588,999,10725,.53553E-2,.7151E-4,0
CZ-8A R/B,2025-231K,2026-06-11T11:05:27.947328,14.30153303,.0116472,50.0047,63.6729,203.8571,155.6919,0,U,66004,999,3412,.45223E-4,-.37E-6,0
SZ-21 MODULE,2025-246C,2026-06-11T04:42:51.675552,15.75880017,.00071055,41.4739,344.6241,312.3917,47.6325,0,U,66515,999,3279,.26187136E-3,.4164E-3,0
